ONEWEB-0698             
1 61604U 24188L   26124.17941536  .00000535  00000+0  14750-2 0  9992
2 61604  87.8922  29.8332 0002290  47.7314 312.4008 13.11419127 78701
ONEWEB-0699             
1 61605U 24188M   26124.08089112  .00000695  00000+0  19554-2 0  9990
2 61605  87.8853  45.0428 0001640  58.1399 301.9888 13.10373199 77534
ONEWEB-0700             
1 61606U 24188N   26124.00618884  .00000575  00000+0  16103-2 0  9991
2 61606  87.8870  44.9591 0001283  64.2905 295.8355 13.10371602 77512
ONEWEB-0701             
1 61607U 24188P   26124.17549190 -.00000194  00000+0 -59080-3 0  9994
2 61607  87.8848  45.0225 0001571  52.5896 307.5374 13.10370543 77541
ONEWEB-0702             
1 61608U 24188Q   26124.14887910 -.00000478  00000+0 -13850-2 0  9996
2 61608  87.8937  29.7366 0001146  49.2000 310.9227 13.11414681 78712
ONEWEB-0704             
1 61609U 24188R   26124.01116990  .00000351  00000+0  96939-3 0  9994
2 61609  87.8871  45.0392 0000956  53.0836 307.0379 13.10368821 77502
ONEWEB-0705             
1 61610U 24188S   26124.01614750  .00000152  00000+0  39977-3 0  9991
2 61610  87.8861  45.0460 0000966 110.2850 249.8381 13.10367377 69672
ONEWEB-0706             
1 61611U 24188T   26124.15392661  .00000659  00000+0  18503-2 0  9994
2 61611  87.8855  45.0266 0001270  72.3375 287.7891 13.10372988 77613
ONEWEB-0707             
1 61612U 24188U   26124.00785274  .00000531  00000+0  14856-2 0  9991
2 61612  87.8860  45.0473 0001337  70.1929 289.9343 13.10370893 77535
ONEWEB-0708             
1 61613U 24188V   26124.02609759 -.00000403  00000+0 -11917-2 0  9992
2 61613  87.8851  45.0661 0001637  96.0937 264.0377 13.10371144 77513
