[{"OBJECT_NAME":"ONEWEB-0698","OBJECT_ID":"2024-188L","EPOCH":"2026-05-04T04:18:21.487104","MEAN_MOTION":13.11419127,"ECCENTRICITY":0.000229,"INCLINATION":87.8922,"RA_OF_ASC_NODE":29.8332,"ARG_OF_PERICENTER":47.7314,"MEAN_ANOMALY":312.4008,"EPHEMERIS_TYPE":0,"CLASSIFICATION_TYPE":"U","NORAD_CAT_ID":61604,"ELEMENT_SET_NO":999,"REV_AT_EPOCH":7870,"BSTAR":0.001475,"MEAN_MOTION_DOT":5.35e-06,"MEAN_MOTION_DDOT":0.0},{"OBJECT_NAME":"ONEWEB-0699","OBJECT_ID":"2024-188M","EPOCH":"2026-05-04T01:56:28.992768","MEAN_MOTION":13.10373199,"ECCENTRICITY":0.000164,"INCLINATION":87.8853,"RA_OF_ASC_NODE":45.0428,"ARG_OF_PERICENTER":58.1399,"MEAN_ANOMALY":301.9888,"EPHEMERIS_TYPE":0,"CLASSIFICATION_TYPE":"U","NORAD_CAT_ID":61605,"ELEMENT_SET_NO":999,"REV_AT_EPOCH":7753,"BSTAR":0.0019554,"MEAN_MOTION_DOT":6.95e-06,"MEAN_MOTION_DDOT":0.0},{"OBJECT_NAME":"ONEWEB-0700","OBJECT_ID":"2024-188N","EPOCH":"2026-05-04T00:08:54.715776","MEAN_MOTION":13.10371602,"ECCENTRICITY":0.0001283,"INCLINATION":87.887,"RA_OF_ASC_NODE":44.9591,"ARG_OF_PERICENTER":64.2905,"MEAN_ANOMALY":295.8355,"EPHEMERIS_TYPE":0,"CLASSIFICATION_TYPE":"U","NORAD_CAT_ID":61606,"ELEMENT_SET_NO":999,"REV_AT_EPOCH":7751,"BSTAR":0.0016103,"MEAN_MOTION_DOT":5.75e-06,"MEAN_MOTION_DDOT":0.0},{"OBJECT_NAME":"ONEWEB-0701","OBJECT_ID":"2024-188P","EPOCH":"2026-05-04T04:12:42.500160","MEAN_MOTION":13.10370543,"ECCENTRICITY":0.0001571,"INCLINATION":87.8848,"RA_OF_ASC_NODE":45.0225,"ARG_OF_PERICENTER":52.5896,"MEAN_ANOMALY":307.5374,"EPHEMERIS_TYPE":0,"CLASSIFICATION_TYPE":"U","NORAD_CAT_ID":61607,"ELEMENT_SET_NO":999,"REV_AT_EPOCH":7754,"BSTAR":-0.0005908,"MEAN_MOTION_DOT":-1.94e-06,"MEAN_MOTION_DDOT":0.0},{"OBJECT_NAME":"ONEWEB-0702","OBJECT_ID":"2024-188Q","EPOCH":"2026-05-04T03:34:23.154240","MEAN_MOTION":13.11414681,"ECCENTRICITY":0.0001146,"INCLINATION":87.8937,"RA_OF_ASC_NODE":29.7366,"ARG_OF_PERICENTER":49.2,"MEAN_ANOMALY":310.9227,"EPHEMERIS_TYPE":0,"CLASSIFICATION_TYPE":"U","NORAD_CAT_ID":61608,"ELEMENT_SET_NO":999,"REV_AT_EPOCH":7871,"BSTAR":-0.0013850000000000002,"MEAN_MOTION_DOT":-4.78e-06,"MEAN_MOTION_DDOT":0.0},{"OBJECT_NAME":"ONEWEB-0704","OBJECT_ID":"2024-188R","EPOCH":"2026-05-04T00:16:05.079360","MEAN_MOTION":13.10368821,"ECCENTRICITY":9.56e-05,"INCLINATION":87.8871,"RA_OF_ASC_NODE":45.0392,"ARG_OF_PERICENTER":53.0836,"MEAN_ANOMALY":307.0379,"EPHEMERIS_TYPE":0,"CLASSIFICATION_TYPE":"U","NORAD_CAT_ID":61609,"ELEMENT_SET_NO":999,"REV_AT_EPOCH":7750,"BSTAR":0.00096939,"MEAN_MOTION_DOT":3.51e-06,"MEAN_MOTION_DDOT":0.0},{"OBJECT_NAME":"ONEWEB-0705","OBJECT_ID":"2024-188S","EPOCH":"2026-05-04T00:23:15.144000","MEAN_MOTION":13.10367377,"ECCENTRICITY":9.66e-05,"INCLINATION":87.8861,"RA_OF_ASC_NODE":45.046,"ARG_OF_PERICENTER":110.285,"MEAN_ANOMALY":249.8381,"EPHEMERIS_TYPE":0,"CLASSIFICATION_TYPE":"U","NORAD_CAT_ID":61610,"ELEMENT_SET_NO":999,"REV_AT_EPOCH":6967,"BSTAR":0.00039977000000000003,"MEAN_MOTION_DOT":1.52e-06,"MEAN_MOTION_DDOT":0.0},{"OBJECT_NAME":"ONEWEB-0706","OBJECT_ID":"2024-188T","EPOCH":"2026-05-04T03:41:39.259104","MEAN_MOTION":13.10372988,"ECCENTRICITY":0.000127,"INCLINATION":87.8855,"RA_OF_ASC_NODE":45.0266,"ARG_OF_PERICENTER":72.3375,"MEAN_ANOMALY":287.7891,"EPHEMERIS_TYPE":0,"CLASSIFICATION_TYPE":"U","NORAD_CAT_ID":61611,"ELEMENT_SET_NO":999,"REV_AT_EPOCH":7761,"BSTAR":0.0018503,"MEAN_MOTION_DOT":6.59e-06,"MEAN_MOTION_DDOT":0.0},{"OBJECT_NAME":"ONEWEB-0707","OBJECT_ID":"2024-188U","EPOCH":"2026-05-04T00:11:18.476736","MEAN_MOTION":13.10370893,"ECCENTRICITY":0.0001337,"INCLINATION":87.886,"RA_OF_ASC_NODE":45.0473,"ARG_OF_PERICENTER":70.1929,"MEAN_ANOMALY":289.9343,"EPHEMERIS_TYPE":0,"CLASSIFICATION_TYPE":"U","NORAD_CAT_ID":61612,"ELEMENT_SET_NO":999,"REV_AT_EPOCH":7753,"BSTAR":0.0014856000000000001,"MEAN_MOTION_DOT":5.31e-06,"MEAN_MOTION_DDOT":0.0},{"OBJECT_NAME":"ONEWEB-0708","OBJECT_ID":"2024-188V","EPOCH":"2026-05-04T00:37:34.831776","MEAN_MOTION":13.10371144,"ECCENTRICITY":0.0001637,"INCLINATION":87.8851,"RA_OF_ASC_NODE":45.0661,"ARG_OF_PERICENTER":96.0937,"MEAN_ANOMALY":264.0377,"EPHEMERIS_TYPE":0,"CLASSIFICATION_TYPE":"U","NORAD_CAT_ID":61613,"ELEMENT_SET_NO":999,"REV_AT_EPOCH":7751,"BSTAR":-0.0011917,"MEAN_MOTION_DOT":-4.03e-06,"MEAN_MOTION_DDOT":0.0}]